{
    "links": {
        "self": "http://www.neowsapp.com/rest/v1/neo/54082292?api_key=iIulBulltgU6a56xZRHN4H3l9WmuAYTsLGpBGhQ2"
    },
    "id": "54082292",
    "neo_reference_id": "54082292",
    "name": "(2020 UU6)",
    "designation": "2020 UU6",
    "nasa_jpl_url": "http://ssd.jpl.nasa.gov/sbdb.cgi?sstr=54082292",
    "absolute_magnitude_h": 23.959,
    "estimated_diameter": {
        "kilometers": {
            "estimated_diameter_min": 0.0429294156,
            "estimated_diameter_max": 0.0959930916
        },
        "meters": {
            "estimated_diameter_min": 42.9294156155,
            "estimated_diameter_max": 95.9930915506
        },
        "miles": {
            "estimated_diameter_min": 0.0266750939,
            "estimated_diameter_max": 0.0596473233
        },
        "feet": {
            "estimated_diameter_min": 140.8445439279,
            "estimated_diameter_max": 314.9379744828
        }
    },
    "is_potentially_hazardous_asteroid": false,
    "close_approach_data": [
        {
            "close_approach_date": "2020-10-24",
            "close_approach_date_full": "2020-Oct-24 07:55",
            "epoch_date_close_approach": 1603526100000,
            "relative_velocity": {
                "kilometers_per_second": "12.2319982027",
                "kilometers_per_hour": "44035.1935297272",
                "miles_per_hour": "27361.7567796241"
            },
            "miss_distance": {
                "astronomical": "0.037797982",
                "lunar": "14.703414998",
                "kilometers": "5654497.59749834",
                "miles": "3513541.881983492"
            },
            "orbiting_body": "Earth"
        },
        {
            "close_approach_date": "2129-06-21",
            "close_approach_date_full": "2129-Jun-21 01:04",
            "epoch_date_close_approach": 5032371840000,
            "relative_velocity": {
                "kilometers_per_second": "26.0395018994",
                "kilometers_per_hour": "93742.2068377176",
                "miles_per_hour": "58247.7617986918"
            },
            "miss_distance": {
                "astronomical": "0.4262730282",
                "lunar": "165.8202079698",
                "kilometers": "63769537.057169934",
                "miles": "39624552.9123917292"
            },
            "orbiting_body": "Earth"
        }
    ],
    "orbital_data": {
        "orbit_id": "6",
        "orbit_determination_date": "2020-11-21 05:21:07",
        "first_observation_date": "2020-10-29",
        "last_observation_date": "2020-11-21",
        "data_arc_in_days": 23,
        "observations_used": 50,
        "orbit_uncertainty": "7",
        "minimum_orbit_intersection": ".00112234",
        "jupiter_tisserand_invariant": "3.334",
        "epoch_osculation": "2459000.5",
        "eccentricity": ".6171612749290462",
        "semi_major_axis": "2.26585453272472",
        "inclination": "2.527668054899423",
        "ascending_node_longitude": "214.7607909869196",
        "orbital_period": "1245.794657532857",
        "perihelion_distance": ".8674568605045736",
        "perihelion_argument": "133.5661728648776",
        "aphelion_distance": "3.664252204944866",
        "perihelion_time": "2459115.661724210877",
        "mean_anomaly": "326.7214653191575",
        "mean_motion": ".2889721815896495",
        "equinox": "J2000",
        "orbit_class": {
            "orbit_class_type": "APO",
            "orbit_class_description": "Near-Earth asteroid orbits which cross the Earth’s orbit similar to that of 1862 Apollo",
            "orbit_class_range": "a (semi-major axis) > 1.0 AU; q (perihelion) < 1.017 AU"
        }
    },
    "is_sentry_object": false
}